start=new Date('2023-06-26T00:00:00.000Z').valueOf();
sats=[{"RA_OF_ASC_NODE":"12.1524","MEAN_MOTION_DDOT":"0.0000000000000","ELEMENT_SET_NO":"999","MEAN_ANOMALY":"110.6829","LAUNCH_DATE":"2023-03-24","PERIAPSIS":"557.928","DECAY_DATE":null,"ARG_OF_PERICENTER":"260.3460","TIME_SYSTEM":"UTC","SEMIMAJOR_AXIS":"6937.224","FILE":"3942369","OBJECT_ID":"2023-042AV","TLE_LINE1":"1 56029U 23042AV  23176.58334491  .00017502  00000-0  13075-2 0  9992","NORAD_CAT_ID":"56029","GP_ID":"234543082","REF_FRAME":"TEME","MEAN_MOTION_DOT":"0.00017502","PERIOD":"95.838","CENTER_NAME":"EARTH","MEAN_MOTION":"15.02533719","EPHEMERIS_TYPE":"0","COUNTRY_CODE":"US","ECCENTRICITY":"0.00016730","SITE":"AFETR","EPOCH":"2023-06-25T14:00:01.000224","MEAN_ELEMENT_THEORY":"SGP4","APOAPSIS":"560.249","OBJECT_TYPE":"PAYLOAD","TLE_LINE2":"2 56029  43.0004  12.1524 0001673 260.3460 110.6829 15.02533719 14769","INCLINATION":"43.0004","BSTAR":"0.00130750000000","OBJECT_NAME":"STARLINK-5774","REV_AT_EPOCH":"1476","RCS_SIZE":"LARGE","CLASSIFICATION_TYPE":"U"},{"SEMIMAJOR_AXIS":"6937.239","TIME_SYSTEM":"UTC","OBJECT_ID":"2023-042AW","FILE":"3942592","TLE_LINE1":"1 56030U 23042AW  23176.57133577 -.00000252  00000-0 -35527-5 0  9990","GP_ID":"234548001","NORAD_CAT_ID":"56030","RA_OF_ASC_NODE":"12.0852","ELEMENT_SET_NO":"999","MEAN_MOTION_DDOT":"0.0000000000000","MEAN_ANOMALY":"93.7992","ARG_OF_PERICENTER":"266.2712","PERIAPSIS":"558.263","DECAY_DATE":null,"LAUNCH_DATE":"2023-03-24","INCLINATION":"43.0005","BSTAR":"-0.00000355270000","REV_AT_EPOCH":"1476","OBJECT_NAME":"STARLINK-5781","RCS_SIZE":"LARGE","CLASSIFICATION_TYPE":"U","CENTER_NAME":"EARTH","PERIOD":"95.838","REF_FRAME":"TEME","MEAN_MOTION_DOT":"-0.00000252","SITE":"AFETR","ECCENTRICITY":"0.00012130","COUNTRY_CODE":"US","EPHEMERIS_TYPE":"0","MEAN_MOTION":"15.02528632","MEAN_ELEMENT_THEORY":"SGP4","EPOCH":"2023-06-25T13:42:43.410528","TLE_LINE2":"2 56030  43.0005  12.0852 0001213 266.2712  93.7992 15.02528632 14760","OBJECT_TYPE":"PAYLOAD","APOAPSIS":"559.946"},{"TLE_LINE1":"1 56031U 23042AX  23176.91668981  .00005183  00000-0  39855-3 0  9993","GP_ID":"234551910","NORAD_CAT_ID":"56031","SEMIMAJOR_AXIS":"6937.246","TIME_SYSTEM":"UTC","OBJECT_ID":"2023-042AX","FILE":"3942746","MEAN_ANOMALY":"127.9185","DECAY_DATE":null,"PERIAPSIS":"558.046","ARG_OF_PERICENTER":"272.3276","LAUNCH_DATE":"2023-03-24","RA_OF_ASC_NODE":"10.2838","ELEMENT_SET_NO":"999","MEAN_MOTION_DDOT":"0.0000000000000","RCS_SIZE":"LARGE","CLASSIFICATION_TYPE":"U","INCLINATION":"43.0005","BSTAR":"0.00039855000000","OBJECT_NAME":"STARLINK-5785","REV_AT_EPOCH":"1481","EPOCH":"2023-06-25T22:00:01.999584","MEAN_ELEMENT_THEORY":"SGP4","OBJECT_TYPE":"PAYLOAD","TLE_LINE2":"2 56031  43.0005  10.2838 0001536 272.3276 127.9185 15.02526332 14811","APOAPSIS":"560.177","CENTER_NAME":"EARTH","REF_FRAME":"TEME","MEAN_MOTION_DOT":"0.00005183","PERIOD":"95.839","COUNTRY_CODE":"US","SITE":"AFETR","ECCENTRICITY":"0.00015360","MEAN_MOTION":"15.02526332","EPHEMERIS_TYPE":"0"},{"EPOCH":"2023-06-25T15:07:15.626208","MEAN_ELEMENT_THEORY":"SGP4","APOAPSIS":"560.078","OBJECT_TYPE":"PAYLOAD","TLE_LINE2":"2 56032  43.0013  11.6674 0001413 271.9824  88.0857 15.02530756 14775","MEAN_MOTION_DOT":"-0.00000082","REF_FRAME":"TEME","PERIOD":"95.838","CENTER_NAME":"EARTH","MEAN_MOTION":"15.02530756","EPHEMERIS_TYPE":"0","COUNTRY_CODE":"US","SITE":"AFETR","ECCENTRICITY":"0.00014130","RCS_SIZE":"LARGE","CLASSIFICATION_TYPE":"U","INCLINATION":"43.0013","BSTAR":"0.00000901000000","OBJECT_NAME":"STARLINK-5786","REV_AT_EPOCH":"1477","MEAN_ANOMALY":"88.0857","LAUNCH_DATE":"2023-03-24","DECAY_DATE":null,"PERIAPSIS":"558.117","ARG_OF_PERICENTER":"271.9824","RA_OF_ASC_NODE":"11.6674","MEAN_MOTION_DDOT":"0.0000000000000","ELEMENT_SET_NO":"999","TLE_LINE1":"1 56032U 23042AY  23176.63004197 -.00000082  00000-0  90100-5 0  9992","GP_ID":"234548004","NORAD_CAT_ID":"56032","TIME_SYSTEM":"UTC","SEMIMAJOR_AXIS":"6937.233","FILE":"3942592","OBJECT_ID":"2023-042AY"},{"CENTER_NAME":"EARTH","PERIOD":"95.839","REF_FRAME":"TEME","MEAN_MOTION_DOT":"0.00000884","SITE":"AFETR","ECCENTRICITY":"0.00012390","COUNTRY_CODE":"US","EPHEMERIS_TYPE":"0","MEAN_MOTION":"15.02520235","MEAN_ELEMENT_THEORY":"SGP4","EPOCH":"2023-06-25T15:10:27.518016","TLE_LINE2":"2 56033  43.0011  11.6833 0001239 271.9808  88.0893 15.02520235 14770","OBJECT_TYPE":"PAYLOAD","APOAPSIS":"559.990","INCLINATION":"43.0011","BSTAR":"0.00008052100000","REV_AT_EPOCH":"1477","OBJECT_NAME":"STARLINK-5784","RCS_SIZE":"LARGE","CLASSIFICATION_TYPE":"U","RA_OF_ASC_NODE":"11.6833","ELEMENT_SET_NO":"999","MEAN_MOTION_DDOT":"0.0000000000000","MEAN_ANOMALY":"88.0893","ARG_OF_PERICENTER":"271.9808","DECAY_DATE":null,"PERIAPSIS":"558.271","LAUNCH_DATE":"2023-03-24","SEMIMAJOR_AXIS":"6937.265","TIME_SYSTEM":"UTC","OBJECT_ID":"2023-042AZ","FILE":"3942593","TLE_LINE1":"1 56033U 23042AZ  23176.63226294  .00000884  00000-0  80521-4 0  9991","GP_ID":"234548515","NORAD_CAT_ID":"56033"},{"INCLINATION":"43.0027","BSTAR":"0.00002573600000","OBJECT_NAME":"STARLINK-5782","REV_AT_EPOCH":"1466","RCS_SIZE":"LARGE","CLASSIFICATION_TYPE":"U","MEAN_MOTION_DOT":"0.00000144","REF_FRAME":"TEME","PERIOD":"95.838","CENTER_NAME":"EARTH","MEAN_MOTION":"15.02535140","EPHEMERIS_TYPE":"0","COUNTRY_CODE":"US","ECCENTRICITY":"0.00012420","SITE":"AFETR","EPOCH":"2023-06-24T21:29:27.241152","MEAN_ELEMENT_THEORY":"SGP4","APOAPSIS":"559.946","TLE_LINE2":"2 56034  43.0027  15.6177 0001242 272.4015  87.6685 15.02535140 14666","OBJECT_TYPE":"PAYLOAD","TIME_SYSTEM":"UTC","SEMIMAJOR_AXIS":"6937.219","FILE":"3942327","OBJECT_ID":"2023-042BA","TLE_LINE1":"1 56034U 23042BA  23175.89545418  .00000144  00000-0  25736-4 0  9997","NORAD_CAT_ID":"56034","GP_ID":"234541324","RA_OF_ASC_NODE":"15.6177","MEAN_MOTION_DDOT":"0.0000000000000","ELEMENT_SET_NO":"999","MEAN_ANOMALY":"87.6685","LAUNCH_DATE":"2023-03-24","DECAY_DATE":null,"PERIAPSIS":"558.223","ARG_OF_PERICENTER":"272.4015"},{"FILE":"3942593","OBJECT_ID":"2023-042BB","TIME_SYSTEM":"UTC","SEMIMAJOR_AXIS":"6937.221","NORAD_CAT_ID":"56035","GP_ID":"234548520","TLE_LINE1":"1 56035U 23042BB  23176.56800383 -.00001444  00000-0 -91832-4 0  9994","MEAN_MOTION_DDOT":"0.0000000000000","ELEMENT_SET_NO":"999","RA_OF_ASC_NODE":"12.0611","LAUNCH_DATE":"2023-03-24","DECAY_DATE":null,"PERIAPSIS":"558.237","ARG_OF_PERICENTER":"259.7875","MEAN_ANOMALY":"100.2829","OBJECT_NAME":"STARLINK-5792","REV_AT_EPOCH":"1476","INCLINATION":"42.9999","BSTAR":"-0.00009183200000","CLASSIFICATION_TYPE":"U","RCS_SIZE":"LARGE","MEAN_MOTION":"15.02534493","EPHEMERIS_TYPE":"0","COUNTRY_CODE":"US","ECCENTRICITY":"0.00012240","SITE":"AFETR","REF_FRAME":"TEME","MEAN_MOTION_DOT":"-0.00001444","PERIOD":"95.838","CENTER_NAME":"EARTH","APOAPSIS":"559.935","OBJECT_TYPE":"PAYLOAD","TLE_LINE2":"2 56035  42.9999  12.0611 0001224 259.7875 100.2829 15.02534493 14762","EPOCH":"2023-06-25T13:37:55.530912","MEAN_ELEMENT_THEORY":"SGP4"},{"ELEMENT_SET_NO":"999","MEAN_MOTION_DDOT":"0.0000000000000","RA_OF_ASC_NODE":"11.6268","ARG_OF_PERICENTER":"267.6224","PERIAPSIS":"558.248","DECAY_DATE":null,"LAUNCH_DATE":"2023-03-24","MEAN_ANOMALY":"92.4478","OBJECT_ID":"2023-042BC","FILE":"3942594","SEMIMAJOR_AXIS":"6937.234","TIME_SYSTEM":"UTC","GP_ID":"234548522","NORAD_CAT_ID":"56036","TLE_LINE1":"1 56036U 23042BC  23176.62449095 -.00000153  00000-0  37133-5 0  9991","ECCENTRICITY":"0.00012270","SITE":"AFETR","COUNTRY_CODE":"US","EPHEMERIS_TYPE":"0","MEAN_MOTION":"15.02530225","CENTER_NAME":"EARTH","PERIOD":"95.838","REF_FRAME":"TEME","MEAN_MOTION_DOT":"-0.00000153","OBJECT_TYPE":"PAYLOAD","TLE_LINE2":"2 56036  43.0017  11.6268 0001227 267.6224  92.4478 15.02530225 14770","APOAPSIS":"559.951","MEAN_ELEMENT_THEORY":"SGP4","EPOCH":"2023-06-25T14:59:16.018080","REV_AT_EPOCH":"1477","OBJECT_NAME":"STARLINK-5790","BSTAR":"0.00000371330000","INCLINATION":"43.0017","CLASSIFICATION_TYPE":"U","RCS_SIZE":"LARGE"},{"APOAPSIS":"515.849","OBJECT_TYPE":"PAYLOAD","TLE_LINE2":"2 56037  43.0019 358.1333 0001403 271.5093 104.4391 15.17011045 14957","MEAN_ELEMENT_THEORY":"SGP4","EPOCH":"2023-06-25T22:00:01.999584","EPHEMERIS_TYPE":"0","MEAN_MOTION":"15.17011045","SITE":"AFETR","ECCENTRICITY":"0.00014030","COUNTRY_CODE":"US","PERIOD":"94.924","MEAN_MOTION_DOT":"-0.00870225","REF_FRAME":"TEME","CENTER_NAME":"EARTH","CLASSIFICATION_TYPE":"U","RCS_SIZE":"LARGE","REV_AT_EPOCH":"1495","OBJECT_NAME":"STARLINK-5758","INCLINATION":"43.0019","BSTAR":"-0.04649100000000","LAUNCH_DATE":"2023-03-24","ARG_OF_PERICENTER":"271.5093","DECAY_DATE":null,"PERIAPSIS":"513.915","MEAN_ANOMALY":"104.4391","MEAN_MOTION_DDOT":"0.0000000000000","ELEMENT_SET_NO":"999","RA_OF_ASC_NODE":"358.1333","GP_ID":"234548023","NORAD_CAT_ID":"56037","TLE_LINE1":"1 56037U 23042BD  23176.91668981 -.00870225  00000-0 -46491-1 0  9990","FILE":"3942594","OBJECT_ID":"2023-042BD","TIME_SYSTEM":"UTC","SEMIMAJOR_AXIS":"6893.017"},{"BSTAR":"0.00009039500000","INCLINATION":"43.0015","REV_AT_EPOCH":"1476","OBJECT_NAME":"STARLINK-5793","RCS_SIZE":"LARGE","CLASSIFICATION_TYPE":"U","CENTER_NAME":"EARTH","PERIOD":"95.839","REF_FRAME":"TEME","MEAN_MOTION_DOT":"0.00001017","SITE":"AFETR","ECCENTRICITY":"0.00012640","COUNTRY_CODE":"US","EPHEMERIS_TYPE":"0","MEAN_MOTION":"15.02526334","MEAN_ELEMENT_THEORY":"SGP4","EPOCH":"2023-06-25T13:25:08.323968","OBJECT_TYPE":"PAYLOAD","TLE_LINE2":"2 56038  43.0015  11.9973 0001264 273.2535  86.8162 15.02526334 14767","APOAPSIS":"559.988","SEMIMAJOR_AXIS":"6937.246","TIME_SYSTEM":"UTC","OBJECT_ID":"2023-042BE","FILE":"3942594","TLE_LINE1":"1 56038U 23042BE  23176.55912412  .00001017  00000-0  90395-4 0  9990","NORAD_CAT_ID":"56038","GP_ID":"234548523","RA_OF_ASC_NODE":"11.9973","ELEMENT_SET_NO":"999","MEAN_MOTION_DDOT":"0.0000000000000","MEAN_ANOMALY":"86.8162","ARG_OF_PERICENTER":"273.2535","DECAY_DATE":null,"PERIAPSIS":"558.234","LAUNCH_DATE":"2023-03-24"}];
